[
    {
        "Altitude(m)": 604983.0529666872,
        "Argument of Periapsis(deg)": 0.0,
        "Eccentricity": 0.0,
        "Inclination(deg)": 60.0,
        "Latitude(deg)": -0.09264582875213152,
        "Longitude(deg)": -169.91608378787822,
        "Mean Anomaly(deg)": 179.99999999999997,
        "RAAN(deg)": 110.00000000000001,
        "Satellite Name": "Test1 495",
        "Satellite Number": 495,
        "Semi-Major Axis(m)": 6980739.136638005,
        "Time(s)": 0
    },
    {
        "Altitude(m)": 605055.3324167466,
        "Argument of Periapsis(deg)": 0.00010418945913296404,
        "Eccentricity": 0.0,
        "Inclination(deg)": 60.0,
        "Latitude(deg)": -0.6330562562024217,
        "Longitude(deg)": -169.6479599782186,
        "Mean Anomaly(deg)": 180.62010614546182,
        "RAAN(deg)": 109.99957995086025,
        "Satellite Name": "Test1 495",
        "Satellite Number": 495,
        "Semi-Major Axis(m)": 6980739.136638005,
        "Time(s)": 10
    }
]